{
  "norad_id": 61753,
  "name": "HORS 3 (RS81S)",
  "history": [
    {
      "epoch": "2026-04-30T14:39:49.279392Z",
      "apogee_km": 417.7671283593727,
      "perigee_km": 405.20564613063016,
      "latitude_deg": 1.7557913669526286e-05,
      "longitude_deg": -82.90458526790283,
      "height_km": 415.50874389984006,
      "semi_major_axis_km": 6789.623387245001,
      "eccentricity": 0.00092505,
      "inclination_deg": 97.305,
      "raan_deg": 355.606,
      "arg_perigee_deg": 98.2864,
      "mean_anomaly_deg": 261.9438,
      "mean_motion_rev_day": 15.51794593
    },
    {
      "epoch": "2026-05-02T09:59:41.063136Z",
      "apogee_km": 417.2935892941932,
      "perigee_km": 404.8218386046683,
      "latitude_deg": -3.980442630751153e-05,
      "longitude_deg": -12.815589043937385,
      "height_km": 414.5460553637509,
      "semi_major_axis_km": 6789.1947139494305,
      "eccentricity": 0.0009185,
      "inclination_deg": 97.3042,
      "raan_deg": 357.4403,
      "arg_perigee_deg": 93.4117,
      "mean_anomaly_deg": 266.8186,
      "mean_motion_rev_day": 15.51941567
    },
    {
      "epoch": "2026-05-03T20:02:16.509984Z",
      "apogee_km": 416.9500293448318,
      "perigee_km": 404.5697969340308,
      "latitude_deg": -4.786672120734901e-05,
      "longitude_deg": -163.4201907382158,
      "height_km": 413.84854280436076,
      "semi_major_axis_km": 6788.8969131394315,
      "eccentricity": 0.0009118,
      "inclination_deg": 97.3038,
      "raan_deg": 358.8815,
      "arg_perigee_deg": 89.7333,
      "mean_anomaly_deg": 270.4964,
      "mean_motion_rev_day": 15.52043684
    },
    {
      "epoch": "2026-05-04T17:42:02.208384Z",
      "apogee_km": 416.72754089667524,
      "perigee_km": 404.42367816316346,
      "latitude_deg": 2.318729987241099e-05,
      "longitude_deg": -128.333068156843,
      "height_km": 413.39292281903073,
      "semi_major_axis_km": 6788.712609529919,
      "eccentricity": 0.0009062,
      "inclination_deg": 97.3035,
      "raan_deg": 359.7987,
      "arg_perigee_deg": 87.2018,
      "mean_anomaly_deg": 273.0272,
      "mean_motion_rev_day": 15.52106888
    },
    {
      "epoch": "2026-05-05T20:00:14.311008Z",
      "apogee_km": 416.40591174788824,
      "perigee_km": 404.2314952891993,
      "latitude_deg": 2.886364558901125e-05,
      "longitude_deg": -162.84994131815154,
      "height_km": 412.8171461839752,
      "semi_major_axis_km": 6788.4557035185435,
      "eccentricity": 0.0008967,
      "inclination_deg": 97.3034,
      "raan_deg": 0.9125,
      "arg_perigee_deg": 84.1579,
      "mean_anomaly_deg": 276.0696,
      "mean_motion_rev_day": 15.52194997
    },
    {
      "epoch": "2026-05-06T19:12:42.348096Z",
      "apogee_km": 416.1713033611304,
      "perigee_km": 404.13023851304206,
      "latitude_deg": 1.9654011228949335e-05,
      "longitude_deg": -150.93737502896087,
      "height_km": 412.38787433814053,
      "semi_major_axis_km": 6788.287770937086,
      "eccentricity": 0.0008869,
      "inclination_deg": 97.3033,
      "raan_deg": 1.895,
      "arg_perigee_deg": 81.5821,
      "mean_anomaly_deg": 278.6437,
      "mean_motion_rev_day": 15.52252596
    },
    {
      "epoch": "2026-05-07T19:57:57.238272Z",
      "apogee_km": 415.96427036151636,
      "perigee_km": 404.03344278000895,
      "latitude_deg": 2.8838162720823605e-05,
      "longitude_deg": -162.21763848458855,
      "height_km": 411.94415096711776,
      "semi_major_axis_km": 6788.135856570762,
      "eccentricity": 0.0008788,
      "inclination_deg": 97.3034,
      "raan_deg": 2.9434,
      "arg_perigee_deg": 78.6541,
      "mean_anomaly_deg": 281.5699,
      "mean_motion_rev_day": 15.52304704
    },
    {
      "epoch": "2026-05-08T17:37:30.140832Z",
      "apogee_km": 415.75831124143133,
      "perigee_km": 403.9350013089306,
      "latitude_deg": 3.185163599377431e-05,
      "longitude_deg": -127.07684477558021,
      "height_km": 411.5370386884986,
      "semi_major_axis_km": 6787.983656275181,
      "eccentricity": 0.0008709,
      "inclination_deg": 97.3034,
      "raan_deg": 3.8608,
      "arg_perigee_deg": 76.0121,
      "mean_anomaly_deg": 284.21,
      "mean_motion_rev_day": 15.52356913
    },
    {
      "epoch": "2026-05-09T19:55:27.856992Z",
      "apogee_km": 415.51528040951416,
      "perigee_km": 403.82531867823946,
      "latitude_deg": 4.6329948764513964e-05,
      "longitude_deg": -161.5332095700737,
      "height_km": 411.0750673065846,
      "semi_major_axis_km": 6787.807299543876,
      "eccentricity": 0.0008611,
      "inclination_deg": 97.3037,
      "raan_deg": 4.975,
      "arg_perigee_deg": 72.9361,
      "mean_anomaly_deg": 287.2835,
      "mean_motion_rev_day": 15.52417412
    },
    {
      "epoch": "2026-05-10T19:07:44.332032Z",
      "apogee_km": 415.31770561447047,
      "perigee_km": 403.7637206112104,
      "latitude_deg": 3.028307074939196e-05,
      "longitude_deg": -149.5717327558041,
      "height_km": 410.6864214094459,
      "semi_major_axis_km": 6787.67771311284,
      "eccentricity": 0.0008511,
      "inclination_deg": 97.3038,
      "raan_deg": 5.9581,
      "arg_perigee_deg": 70.011,
      "mean_anomaly_deg": 290.2059,
      "mean_motion_rev_day": 15.52461869
    },
    {
      "epoch": "2026-05-11T21:25:36.148800Z",
      "apogee_km": 415.1113100045186,
      "perigee_km": 403.6770349913295,
      "latitude_deg": 1.7463008504753405e-05,
      "longitude_deg": 175.996756103708,
      "height_km": 410.2710754056602,
      "semi_major_axis_km": 6787.531172497924,
      "eccentricity": 0.0008423,
      "inclination_deg": 97.304,
      "raan_deg": 7.0725,
      "arg_perigee_deg": 66.8868,
      "mean_anomaly_deg": 293.3272,
      "mean_motion_rev_day": 15.52512145
    },
    {
      "epoch": "2026-05-12T20:37:47.724096Z",
      "apogee_km": 414.924779420322,
      "perigee_km": 403.63052144200446,
      "latitude_deg": 2.0434863806022487e-05,
      "longitude_deg": -172.02109644092138,
      "height_km": 409.910001996619,
      "semi_major_axis_km": 6787.414650431163,
      "eccentricity": 0.000832,
      "inclination_deg": 97.304,
      "raan_deg": 8.0558,
      "arg_perigee_deg": 63.8422,
      "mean_anomaly_deg": 296.3686,
      "mean_motion_rev_day": 15.52552124
    },
    {
      "epoch": "2026-05-13T19:49:57.098784Z",
      "apogee_km": 414.7636193758244,
      "perigee_km": 403.5401584691026,
      "latitude_deg": 4.725122148375461e-05,
      "longitude_deg": -160.02965753416282,
      "height_km": 409.54192783024513,
      "semi_major_axis_km": 6787.288888922463,
      "eccentricity": 0.0008268,
      "inclination_deg": 97.3038,
      "raan_deg": 9.0392,
      "arg_perigee_deg": 60.862,
      "mean_anomaly_deg": 299.346,
      "mean_motion_rev_day": 15.52595275
    },
    {
      "epoch": "2026-05-14T06:39:36.743904Z",
      "apogee_km": 414.68060238684757,
      "perigee_km": 403.5191271075082,
      "latitude_deg": 3.179219497646746e-05,
      "longitude_deg": 37.56937962227048,
      "height_km": 409.4293889462469,
      "semi_major_axis_km": 6787.236864747178,
      "eccentricity": 0.00082224,
      "inclination_deg": 97.3037,
      "raan_deg": 9.4981,
      "arg_perigee_deg": 59.9662,
      "mean_anomaly_deg": 300.2406,
      "mean_motion_rev_day": 15.52613126
    },
    {
      "epoch": "2026-05-15T05:51:42.986592Z",
      "apogee_km": 414.5171315197176,
      "perigee_km": 403.47446645576474,
      "latitude_deg": -3.435807904664339e-05,
      "longitude_deg": 49.57381544450864,
      "height_km": 409.11762051538466,
      "semi_major_axis_km": 6787.132798987741,
      "eccentricity": 0.0008135,
      "inclination_deg": 97.3034,
      "raan_deg": 10.4814,
      "arg_perigee_deg": 57.0678,
      "mean_anomaly_deg": 303.1356,
      "mean_motion_rev_day": 15.52648835
    }
  ]
}